{"type": "FeatureCollection", "features": [ {"type": "Feature", "properties": {"norad_id": 67120, "name": "STARLINK-36217", "group": "last-30-days", "lat": 32.210612158581554, "lon": -67.99765049315825, "alt_km": 298.2505921117763, "timestamp": "2025-12-23T16:57:11.065299+00:00", "meta": {"OBJECT_NAME": "STARLINK-36217", "OBJECT_ID": "2025-299U", "EPOCH": "2025-12-23T06:00:00.999648", "MEAN_MOTION": 15.91729011, "ECCENTRICITY": 0.00017204, "INCLINATION": 42.9983, "RA_OF_ASC_NODE": 252.2955, "ARG_OF_PERICENTER": 266.811, "MEAN_ANOMALY": 47.7983, "EPHEMERIS_TYPE": 0, "CLASSIFICATION_TYPE": "U", "NORAD_CAT_ID": 67120, "ELEMENT_SET_NO": 999, "REV_AT_EPOCH": 250, "BSTAR": -0.0059261589, "MEAN_MOTION_DOT": -0.01996324, "MEAN_MOTION_DDOT": 0.0010736086}, "tle": {"line1": "1 67120U 25299U   25357.25001157 -.01996324  10736-2 -59262-2 0  9997", "line2": "2 67120  42.9983 252.2955 0001720 266.8110  47.7983 15.91729011  2508"}}, "geometry": {"type": "Point", "coordinates": [-67.99765049315825, 32.210612158581554]}}, {"type": "Feature", "properties": {"norad_id": 67121, "name": "STARLINK-36124", "group": "last-30-days", "lat": 34.43456607034447, "lon": -63.1751222766393, "alt_km": 297.9004348803446, "timestamp": "2025-12-23T16:57:11.065309+00:00", "meta": {"OBJECT_NAME": "STARLINK-36124", "OBJECT_ID": "2025-299V", "EPOCH": "2025-12-23T06:00:00.999648", "MEAN_MOTION": 15.91767641, "ECCENTRICITY": 0.00017122, "INCLINATION": 42.9981, "RA_OF_ASC_NODE": 252.284, "ARG_OF_PERICENTER": 265.4079, "MEAN_ANOMALY": 53.7523, "EPHEMERIS_TYPE": 0, "CLASSIFICATION_TYPE": "U", "NORAD_CAT_ID": 67121, "ELEMENT_SET_NO": 999, "REV_AT_EPOCH": 250, "BSTAR": -0.0059456166, "MEAN_MOTION_DOT": -0.02006759, "MEAN_MOTION_DDOT": 0.0010845412}, "tle": {"line1": "1 67121U 25299V   25357.25001157 -.02006759  10845-2 -59456-2 0  9999", "line2": "2 67121  42.9981 252.2840 0001712 265.4079  53.7523 15.91767641  2508"}}, "geometry": {"type": "Point", "coordinates": [-63.1751222766393, 34.43456607034447]}}, {"type": "Feature", "properties": {"norad_id": 67122, "name": "STARLINK-36188", "group": "last-30-days", "lat": 35.082876038482176, "lon": -61.633900909728304, "alt_km": 297.8326656249337, "timestamp": "2025-12-23T16:57:11.065319+00:00", "meta": {"OBJECT_NAME": "STARLINK-36188", "OBJECT_ID": "2025-299W", "EPOCH": "2025-12-23T06:00:00.999648", "MEAN_MOTION": 15.91775347, "ECCENTRICITY": 0.00017033, "INCLINATION": 42.9983, "RA_OF_ASC_NODE": 252.2806, "ARG_OF_PERICENTER": 260.8477, "MEAN_ANOMALY": 59.7186, "EPHEMERIS_TYPE": 0, "CLASSIFICATION_TYPE": "U", "NORAD_CAT_ID": 67122, "ELEMENT_SET_NO": 999, "REV_AT_EPOCH": 250, "BSTAR": -0.0059134397, "MEAN_MOTION_DOT": -0.01996822, "MEAN_MOTION_DDOT": 0.0010746063}, "tle": {"line1": "1 67122U 25299W   25357.25001157 -.01996822  10746-2 -59134-2 0  9991", "line2": "2 67122  42.9983 252.2806 0001703 260.8477  59.7186 15.91775347  2507"}}, "geometry": {"type": "Point", "coordinates": [-61.633900909728304, 35.082876038482176]}}, {"type": "Feature", "properties": {"norad_id": 67123, "name": "STARLINK-36151", "group": "last-30-days", "lat": 33.62014646950882, "lon": -65.01840506728995, "alt_km": 298.0270552613274, "timestamp": "2025-12-23T16:57:11.065333+00:00", "meta": {"OBJECT_NAME": "STARLINK-36151", "OBJECT_ID": "2025-299X", "EPOCH": "2025-12-23T06:00:00.999648", "MEAN_MOTION": 15.91750487, "ECCENTRICITY": 0.00020564, "INCLINATION": 42.9984, "RA_OF_ASC_NODE": 252.2885, "ARG_OF_PERICENTER": 272.9835, "MEAN_ANOMALY": 44.448, "EPHEMERIS_TYPE": 0, "CLASSIFICATION_TYPE": "U", "NORAD_CAT_ID": 67123, "ELEMENT_SET_NO": 999, "REV_AT_EPOCH": 250, "BSTAR": -0.0058742193, "MEAN_MOTION_DOT": -0.01981344, "MEAN_MOTION_DDOT": 0.0010588332}, "tle": {"line1": "1 67123U 25299X   25357.25001157 -.01981344  10588-2 -58742-2 0  9993", "line2": "2 67123  42.9984 252.2885 0002056 272.9835  44.4480 15.91750487  2506"}}, "geometry": {"type": "Point", "coordinates": [-65.01840506728995, 33.62014646950882]}}, {"type": "Feature", "properties": {"norad_id": 67124, "name": "STARLINK-36195", "group": "last-30-days", "lat": 35.79689387802018, "lon": -59.84949208382924, "alt_km": 297.90809399207046, "timestamp": "2025-12-23T16:57:11.065343+00:00", "meta": {"OBJECT_NAME": "STARLINK-36195", "OBJECT_ID": "2025-299Y", "EPOCH": "2025-12-23T06:00:00.999648", "MEAN_MOTION": 15.91784231, "ECCENTRICITY": 0.00022418, "INCLINATION": 42.9986, "RA_OF_ASC_NODE": 252.2765, "ARG_OF_PERICENTER": 268.3072, "MEAN_ANOMALY": 53.8555, "EPHEMERIS_TYPE": 0, "CLASSIFICATION_TYPE": "U", "NORAD_CAT_ID": 67124, "ELEMENT_SET_NO": 999, "REV_AT_EPOCH": 250, "BSTAR": -0.0058952888, "MEAN_MOTION_DOT": -0.01991875, "MEAN_MOTION_DDOT": 0.0010697298}, "tle": {"line1": "1 67124U 25299Y   25357.25001157 -.01991875  10697-2 -58953-2 0  9999", "line2": "2 67124  42.9986 252.2765 0002241 268.3072  53.8555 15.91784231  2505"}}, "geometry": {"type": "Point", "coordinates": [-59.84949208382924, 35.79689387802018]}}, {"type": "Feature", "properties": {"norad_id": 67125, "name": "STARLINK-36219", "group": "last-30-days", "lat": 36.437632661918485, "lon": -58.157625244708655, "alt_km": 297.5037754419536, "timestamp": "2025-12-23T16:57:11.065353+00:00", "meta": {"OBJECT_NAME": "STARLINK-36219", "OBJECT_ID": "2025-299Z", "EPOCH": "2025-12-23T06:00:00.999648", "MEAN_MOTION": 15.91790065, "ECCENTRICITY": 0.00018266, "INCLINATION": 42.9982, "RA_OF_ASC_NODE": 252.2724, "ARG_OF_PERICENTER": 271.3632, "MEAN_ANOMALY": 52.3006, "EPHEMERIS_TYPE": 0, "CLASSIFICATION_TYPE": "U", "NORAD_CAT_ID": 67125, "ELEMENT_SET_NO": 999, "REV_AT_EPOCH": 250, "BSTAR": -0.0058875097, "MEAN_MOTION_DOT": -0.01989717, "MEAN_MOTION_DDOT": 0.0010676266}, "tle": {"line1": "1 67125U 25299Z   25357.25001157 -.01989717  10676-2 -58875-2 0  9992", "line2": "2 67125  42.9982 252.2724 0001826 271.3632  52.3006 15.91790065  2508"}}, "geometry": {"type": "Point", "coordinates": [-58.157625244708655, 36.437632661918485]}}, {"type": "Feature", "properties": {"norad_id": 67126, "name": "STARLINK-36223", "group": "last-30-days", "lat": 37.18647100312994, "lon": -56.05637298767625, "alt_km": 297.6264792618276, "timestamp": "2025-12-23T16:57:11.065363+00:00", "meta": {"OBJECT_NAME": "STARLINK-36223", "OBJECT_ID": "2025-299AA", "EPOCH": "2025-12-23T06:00:00.999648", "MEAN_MOTION": 15.91789032, "ECCENTRICITY": 0.00021344, "INCLINATION": 42.9983, "RA_OF_ASC_NODE": 252.2679, "ARG_OF_PERICENTER": 268.947, "MEAN_ANOMALY": 56.5551, "EPHEMERIS_TYPE": 0, "CLASSIFICATION_TYPE": "U", "NORAD_CAT_ID": 67126, "ELEMENT_SET_NO": 999, "REV_AT_EPOCH": 250, "BSTAR": -0.0058634547, "MEAN_MOTION_DOT": -0.019817, "MEAN_MOTION_DDOT": 0.001059595}, "tle": {"line1": "1 67126U 25299AA  25357.25001157 -.01981700  10596-2 -58635-2 0  9992", "line2": "2 67126  42.9983 252.2679 0002134 268.9470  56.5551 15.91789032  2507"}}, "geometry": {"type": "Point", "coordinates": [-56.05637298767625, 37.18647100312994]}}, {"type": "Feature", "properties": {"norad_id": 67127, "name": "STARLINK-36164", "group": "last-30-days", "lat": 37.82624542631275, "lon": -54.13544517177231, "alt_km": 297.55542207763483, "timestamp": "2025-12-23T16:57:11.065374+00:00", "meta": {"OBJECT_NAME": "STARLINK-36164", "OBJECT_ID": "2025-299AB", "EPOCH": "2025-12-23T06:00:00.999648", "MEAN_MOTION": 15.91798844, "ECCENTRICITY": 0.00021462, "INCLINATION": 42.9983, "RA_OF_ASC_NODE": 252.2637, "ARG_OF_PERICENTER": 267.4073, "MEAN_ANOMALY": 59.7336, "EPHEMERIS_TYPE": 0, "CLASSIFICATION_TYPE": "U", "NORAD_CAT_ID": 67127, "ELEMENT_SET_NO": 999, "REV_AT_EPOCH": 250, "BSTAR": -0.0058597902, "MEAN_MOTION_DOT": -0.01981478, "MEAN_MOTION_DDOT": 0.0010594771}, "tle": {"line1": "1 67127U 25299AB  25357.25001157 -.01981478  10595-2 -58598-2 0  9992", "line2": "2 67127  42.9983 252.2637 0002146 267.4073  59.7336 15.91798844  2505"}}, "geometry": {"type": "Point", "coordinates": [-54.13544517177231, 37.82624542631275]}}, {"type": "Feature", "properties": {"norad_id": 67128, "name": "STARLINK-35685", "group": "last-30-days", "lat": 39.51070654067617, "lon": -48.32666373608449, "alt_km": 297.4558380988292, "timestamp": "2025-12-23T16:57:11.065385+00:00", "meta": {"OBJECT_NAME": "STARLINK-35685", "OBJECT_ID": "2025-299AC", "EPOCH": "2025-12-23T06:00:00.999648", "MEAN_MOTION": 15.91774734, "ECCENTRICITY": 0.00022365, "INCLINATION": 42.998, "RA_OF_ASC_NODE": 252.2511, "ARG_OF_PERICENTER": 269.8407, "MEAN_ANOMALY": 62.184, "EPHEMERIS_TYPE": 0, "CLASSIFICATION_TYPE": "U", "NORAD_CAT_ID": 67128, "ELEMENT_SET_NO": 999, "REV_AT_EPOCH": 250, "BSTAR": -0.0058833328, "MEAN_MOTION_DOT": -0.01986919, "MEAN_MOTION_DDOT": 0.0010646608}, "tle": {"line1": "1 67128U 25299AC  25357.25001157 -.01986919  10647-2 -58833-2 0  9998", "line2": "2 67128  42.9980 252.2511 0002236 269.8407  62.1840 15.91774734  2501"}}, "geometry": {"type": "Point", "coordinates": [-48.32666373608449, 39.51070654067617]}}, {"type": "Feature", "properties": {"norad_id": 67129, "name": "STARLINK-36214", "group": "last-30-days", "lat": 38.54513643956535, "lon": -51.80901435801393, "alt_km": 297.1600444105661, "timestamp": "2025-12-23T16:57:11.065395+00:00", "meta": {"OBJECT_NAME": "STARLINK-36214", "OBJECT_ID": "2025-299AD", "EPOCH": "2025-12-23T06:00:00.999648", "MEAN_MOTION": 15.91799312, "ECCENTRICITY": 0.00017879, "INCLINATION": 42.9981, "RA_OF_ASC_NODE": 252.2585, "ARG_OF_PERICENTER": 274.3659, "MEAN_ANOMALY": 54.7488, "EPHEMERIS_TYPE": 0, "CLASSIFICATION_TYPE": "U", "NORAD_CAT_ID": 67129, "ELEMENT_SET_NO": 999, "REV_AT_EPOCH": 250, "BSTAR": -0.0058983626, "MEAN_MOTION_DOT": -0.0199427, "MEAN_MOTION_DDOT": 0.0010722936}, "tle": {"line1": "1 67129U 25299AD  25357.25001157 -.01994270  10723-2 -58984-2 0  9990", "line2": "2 67129  42.9981 252.2585 0001787 274.3659  54.7488 15.91799312  2508"}}, "geometry": {"type": "Point", "coordinates": [-51.80901435801393, 38.54513643956535]}}]}